[{"OBJECT_NAME":"STARLINK-5959","OBJECT_ID":"2023-064G","EPOCH":"2026-03-09T22:33:03.362400","MEAN_MOTION":14.98327857,"ECCENTRICITY":0.00032927,"INCLINATION":70.0003,"RA_OF_ASC_NODE":143.8225,"ARG_OF_PERICENTER":267.2953,"MEAN_ANOMALY":92.7829,"EPHEMERIS_TYPE":0,"CLASSIFICATION_TYPE":"U","NORAD_CAT_ID":56454,"ELEMENT_SET_NO":999,"REV_AT_EPOCH":15528,"BSTAR":-7.171631e-6,"MEAN_MOTION_DOT":-1.79e-6,"MEAN_MOTION_DDOT":0},{"OBJECT_NAME":"QPS-SAR-15 (SUKUNAMI-I)","OBJECT_ID":"2025-307A","EPOCH":"2026-03-08T23:55:57.082080","MEAN_MOTION":14.98074148,"ECCENTRICITY":0.00081968,"INCLINATION":42.0068,"RA_OF_ASC_NODE":57.7223,"ARG_OF_PERICENTER":56.4325,"MEAN_ANOMALY":303.7282,"EPHEMERIS_TYPE":0,"CLASSIFICATION_TYPE":"U","NORAD_CAT_ID":67228,"ELEMENT_SET_NO":999,"REV_AT_EPOCH":1165,"BSTAR":0.00063967163,"MEAN_MOTION_DOT":7.522e-5,"MEAN_MOTION_DDOT":0}]
